STARLINK-1651           
1 46366U 20062AT  26061.89895882  .11338563  12405-4  52076-3 0  9996
2 46366  53.0202 299.8381 0006416 248.9983 111.0378 16.42914037304789
STARLINK-1687           
1 46541U 20070K   26062.30595297  .01991084  42376-2  14047-2 0  9999
2 46541  53.0297 123.4617 0010417   4.4947 355.6181 16.16448484299682
STARLINK-1712           
1 46581U 20070BB  26062.16668981  .00493336  10912-3  12650-2 0  9994
2 46581  53.0309 113.9389 0006757 335.4944  35.1136 15.94702617  5812
STARLINK-1848           
1 46740U 20074B   26062.31100626  .04639364  12031-4  11376-2 0  9995
2 46740  53.0240 283.4809 0007342 256.4794 103.5429 16.28452550296643
STARLINK-1955           
1 47556U 21009J   26062.16668981  .00433650  83053-4  13110-2 0  9992
2 47556  53.0361 358.5092 0003287 111.0503  96.0682 15.91623011  5960
WILDTRACKCUBE-SIMBA     
1 47941U 21022K   26061.77831130  .01594751  20789-2  13686-2 0  9993
2 47941  97.3814 343.4750 0007101 121.4058 238.7923 16.13912444274737
JILIN-1 GAOFEN 3D02     
1 49005U 21061C   26062.16171553  .01208276  94766-3  12468-2 0  9997
2 49005  97.2925 142.6135 0004612 242.9511 117.1303 16.10894732259769
STARLINK-3269           
1 50194U 21125AQ  26062.33304072  .02049207  43780-2  16263-2 0  9996
2 50194  53.1993 163.0655 0011045 338.4868  21.5704 16.14813482237300
LYNK TOWER 1            
1 52162U 22033F   26061.78838928  .00607355  18917-3  74408-3 0  9995
2 52162  97.2574 166.8623 0005923 198.1753 161.9319 16.08007938220137
STARLINK-3767           
1 52376U 22045AX  26062.16668981  .01273978  81874-3  29458-2 0  9995
2 52376  53.2125 205.6714 0000930  66.3599 156.9383 15.96767076  5899
NUSAT-28 (ALICE LEE)    
1 52747U 22057R   26062.19935970  .00481789  96241-4  12308-2 0  9999
2 52747  97.4985 211.3717 0006783 289.1971  70.8570 15.95306131211018
STARLINK-6284           
1 56403U 23061AF  26062.30685328  .02750221  90618-5  75550-3 0  9994
2 56403  42.9907 176.6673 0005894 307.3371  52.6980 16.26988816156431
STARLINK-6201           
1 56486U 23064AQ  26062.16668981  .01221128  69904-3  35012-2 0  9996
2 56486  69.9986 132.3134 0003721 271.9077 128.3842 15.93114556  5880
SHIYAN-25 (SY-25)       
1 57047U 23087A   26062.21658324  .00136800  95779-5  25391-3 0  9993
2 57047  96.7141 123.2949 0012271 239.6093 120.3976 16.00998692157852
STARLINK-6151           
1 57118U 23090T   26062.37374604  .01338094  12819-2  10132-2 0  9996
2 57118  42.9697 187.6778 0017036 343.6793  16.3540 16.14225612150866
STARLINK-30210          
1 57292U 23096C   26062.34229086  .00748056  26980-3  12115-2 0  9995
2 57292  42.9635 175.4239 0025744 357.4945   2.5801 16.01915636147495
