[{"OBJECT_NAME":"STARLINK-1651","OBJECT_ID":"2020-062AT","EPOCH":"2026-03-02T21:34:30.042048","MEAN_MOTION":16.42914037,"ECCENTRICITY":0.00064168,"INCLINATION":53.0202,"RA_OF_ASC_NODE":299.8381,"ARG_OF_PERICENTER":248.9983,"MEAN_ANOMALY":111.0378,"EPHEMERIS_TYPE":0,"CLASSIFICATION_TYPE":"U","NORAD_CAT_ID":46366,"ELEMENT_SET_NO":999,"REV_AT_EPOCH":30478,"BSTAR":0.00052075545,"MEAN_MOTION_DOT":0.11338563,"MEAN_MOTION_DDOT":1.2404903e-5},{"OBJECT_NAME":"STARLINK-1687","OBJECT_ID":"2020-070K","EPOCH":"2026-03-03T07:20:34.336608","MEAN_MOTION":16.16448484,"ECCENTRICITY":0.0010417,"INCLINATION":53.0297,"RA_OF_ASC_NODE":123.4617,"ARG_OF_PERICENTER":4.4947,"MEAN_ANOMALY":355.6181,"EPHEMERIS_TYPE":0,"CLASSIFICATION_TYPE":"U","NORAD_CAT_ID":46541,"ELEMENT_SET_NO":999,"REV_AT_EPOCH":29968,"BSTAR":0.0014047,"MEAN_MOTION_DOT":0.01991084,"MEAN_MOTION_DDOT":0.0042376},{"OBJECT_NAME":"STARLINK-1712","OBJECT_ID":"2020-070BB","EPOCH":"2026-03-03T04:00:01.999584","MEAN_MOTION":15.94702617,"ECCENTRICITY":0.0006757,"INCLINATION":53.0309,"RA_OF_ASC_NODE":113.9389,"ARG_OF_PERICENTER":335.4944,"MEAN_ANOMALY":35.1136,"EPHEMERIS_TYPE":0,"CLASSIFICATION_TYPE":"U","NORAD_CAT_ID":46581,"ELEMENT_SET_NO":999,"REV_AT_EPOCH":581,"BSTAR":0.001265,"MEAN_MOTION_DOT":0.00493336,"MEAN_MOTION_DDOT":0.00010912},{"OBJECT_NAME":"STARLINK-1848","OBJECT_ID":"2020-074B","EPOCH":"2026-03-03T07:27:50.940864","MEAN_MOTION":16.2845255,"ECCENTRICITY":0.0007342,"INCLINATION":53.024,"RA_OF_ASC_NODE":283.4809,"ARG_OF_PERICENTER":256.4794,"MEAN_ANOMALY":103.5429,"EPHEMERIS_TYPE":0,"CLASSIFICATION_TYPE":"U","NORAD_CAT_ID":46740,"ELEMENT_SET_NO":999,"REV_AT_EPOCH":29664,"BSTAR":0.0011376,"MEAN_MOTION_DOT":0.04639364,"MEAN_MOTION_DDOT":1.2031e-5},{"OBJECT_NAME":"STARLINK-1955","OBJECT_ID":"2021-009J","EPOCH":"2026-03-03T04:00:01.999584","MEAN_MOTION":15.91623011,"ECCENTRICITY":0.0003287,"INCLINATION":53.0361,"RA_OF_ASC_NODE":358.5092,"ARG_OF_PERICENTER":111.0503,"MEAN_ANOMALY":96.0682,"EPHEMERIS_TYPE":0,"CLASSIFICATION_TYPE":"U","NORAD_CAT_ID":47556,"ELEMENT_SET_NO":999,"REV_AT_EPOCH":596,"BSTAR":0.001311,"MEAN_MOTION_DOT":0.0043365,"MEAN_MOTION_DDOT":8.3053e-5},{"OBJECT_NAME":"WILDTRACKCUBE-SIMBA","OBJECT_ID":"2021-022K","EPOCH":"2026-03-02T18:40:46.096320","MEAN_MOTION":16.13912444,"ECCENTRICITY":0.00071014,"INCLINATION":97.3814,"RA_OF_ASC_NODE":343.475,"ARG_OF_PERICENTER":121.4058,"MEAN_ANOMALY":238.7923,"EPHEMERIS_TYPE":0,"CLASSIFICATION_TYPE":"U","NORAD_CAT_ID":47941,"ELEMENT_SET_NO":999,"REV_AT_EPOCH":27473,"BSTAR":0.0013685892,"MEAN_MOTION_DOT":0.01594751,"MEAN_MOTION_DDOT":0.0020788521},{"OBJECT_NAME":"JILIN-1 GAOFEN 3D02","OBJECT_ID":"2021-061C","EPOCH":"2026-03-03T03:52:52.221792","MEAN_MOTION":16.10894732,"ECCENTRICITY":0.0004612,"INCLINATION":97.2925,"RA_OF_ASC_NODE":142.6135,"ARG_OF_PERICENTER":242.9511,"MEAN_ANOMALY":117.1303,"EPHEMERIS_TYPE":0,"CLASSIFICATION_TYPE":"U","NORAD_CAT_ID":49005,"ELEMENT_SET_NO":999,"REV_AT_EPOCH":25976,"BSTAR":0.0012468,"MEAN_MOTION_DOT":0.01208276,"MEAN_MOTION_DDOT":0.00094766},{"OBJECT_NAME":"STARLINK-3269","OBJECT_ID":"2021-125AQ","EPOCH":"2026-03-03T07:59:34.718208","MEAN_MOTION":16.14813482,"ECCENTRICITY":0.0011045,"INCLINATION":53.1993,"RA_OF_ASC_NODE":163.0655,"ARG_OF_PERICENTER":338.4868,"MEAN_ANOMALY":21.5704,"EPHEMERIS_TYPE":0,"CLASSIFICATION_TYPE":"U","NORAD_CAT_ID":50194,"ELEMENT_SET_NO":999,"REV_AT_EPOCH":23730,"BSTAR":0.0016263,"MEAN_MOTION_DOT":0.02049207,"MEAN_MOTION_DDOT":0.004378},{"OBJECT_NAME":"LYNK TOWER 1","OBJECT_ID":"2022-033F","EPOCH":"2026-03-02T18:55:16.833792","MEAN_MOTION":16.08007938,"ECCENTRICITY":0.00059238,"INCLINATION":97.2574,"RA_OF_ASC_NODE":166.8623,"ARG_OF_PERICENTER":198.1753,"MEAN_ANOMALY":161.9319,"EPHEMERIS_TYPE":0,"CLASSIFICATION_TYPE":"U","NORAD_CAT_ID":52162,"ELEMENT_SET_NO":999,"REV_AT_EPOCH":22013,"BSTAR":0.0007440774,"MEAN_MOTION_DOT":0.00607355,"MEAN_MOTION_DDOT":0.00018916924},{"OBJECT_NAME":"STARLINK-3767","OBJECT_ID":"2022-045AX","EPOCH":"2026-03-03T04:00:01.999584","MEAN_MOTION":15.96767076,"ECCENTRICITY":9.3e-5,"INCLINATION":53.2125,"RA_OF_ASC_NODE":205.6714,"ARG_OF_PERICENTER":66.3599,"MEAN_ANOMALY":156.9383,"EPHEMERIS_TYPE":0,"CLASSIFICATION_TYPE":"U","NORAD_CAT_ID":52376,"ELEMENT_SET_NO":999,"REV_AT_EPOCH":589,"BSTAR":0.0029458,"MEAN_MOTION_DOT":0.01273978,"MEAN_MOTION_DDOT":0.00081874},{"OBJECT_NAME":"NUSAT-28 (ALICE LEE)","OBJECT_ID":"2022-057R","EPOCH":"2026-03-03T04:47:04.678080","MEAN_MOTION":15.95306131,"ECCENTRICITY":0.0006783,"INCLINATION":97.4985,"RA_OF_ASC_NODE":211.3717,"ARG_OF_PERICENTER":289.1971,"MEAN_ANOMALY":70.857,"EPHEMERIS_TYPE":0,"CLASSIFICATION_TYPE":"U","NORAD_CAT_ID":52747,"ELEMENT_SET_NO":999,"REV_AT_EPOCH":21101,"BSTAR":0.0012308,"MEAN_MOTION_DOT":0.00481789,"MEAN_MOTION_DDOT":9.6241e-5},{"OBJECT_NAME":"STARLINK-6284","OBJECT_ID":"2023-061AF","EPOCH":"2026-03-03T07:21:52.123392","MEAN_MOTION":16.26988816,"ECCENTRICITY":0.0005894,"INCLINATION":42.9907,"RA_OF_ASC_NODE":176.6673,"ARG_OF_PERICENTER":307.3371,"MEAN_ANOMALY":52.698,"EPHEMERIS_TYPE":0,"CLASSIFICATION_TYPE":"U","NORAD_CAT_ID":56403,"ELEMENT_SET_NO":999,"REV_AT_EPOCH":15643,"BSTAR":0.0007555,"MEAN_MOTION_DOT":0.02750221,"MEAN_MOTION_DDOT":9.0618e-6},{"OBJECT_NAME":"STARLINK-6201","OBJECT_ID":"2023-064AQ","EPOCH":"2026-03-03T04:00:01.999584","MEAN_MOTION":15.93114556,"ECCENTRICITY":0.0003721,"INCLINATION":69.9986,"RA_OF_ASC_NODE":132.3134,"ARG_OF_PERICENTER":271.9077,"MEAN_ANOMALY":128.3842,"EPHEMERIS_TYPE":0,"CLASSIFICATION_TYPE":"U","NORAD_CAT_ID":56486,"ELEMENT_SET_NO":999,"REV_AT_EPOCH":588,"BSTAR":0.0035012,"MEAN_MOTION_DOT":0.01221128,"MEAN_MOTION_DDOT":0.00069904},{"OBJECT_NAME":"SHIYAN-25 (SY-25)","OBJECT_ID":"2023-087A","EPOCH":"2026-03-03T05:11:52.791936","MEAN_MOTION":16.00998692,"ECCENTRICITY":0.0012271,"INCLINATION":96.7141,"RA_OF_ASC_NODE":123.2949,"ARG_OF_PERICENTER":239.6093,"MEAN_ANOMALY":120.3976,"EPHEMERIS_TYPE":0,"CLASSIFICATION_TYPE":"U","NORAD_CAT_ID":57047,"ELEMENT_SET_NO":999,"REV_AT_EPOCH":15785,"BSTAR":0.00025391,"MEAN_MOTION_DOT":0.001368,"MEAN_MOTION_DDOT":9.5779e-6},{"OBJECT_NAME":"STARLINK-6151","OBJECT_ID":"2023-090T","EPOCH":"2026-03-03T08:58:11.657856","MEAN_MOTION":16.14225612,"ECCENTRICITY":0.0017036,"INCLINATION":42.9697,"RA_OF_ASC_NODE":187.6778,"ARG_OF_PERICENTER":343.6793,"MEAN_ANOMALY":16.354,"EPHEMERIS_TYPE":0,"CLASSIFICATION_TYPE":"U","NORAD_CAT_ID":57118,"ELEMENT_SET_NO":999,"REV_AT_EPOCH":15086,"BSTAR":0.0010132,"MEAN_MOTION_DOT":0.01338094,"MEAN_MOTION_DDOT":0.0012819},{"OBJECT_NAME":"STARLINK-30210","OBJECT_ID":"2023-096C","EPOCH":"2026-03-03T08:12:53.930304","MEAN_MOTION":16.01915636,"ECCENTRICITY":0.0025744,"INCLINATION":42.9635,"RA_OF_ASC_NODE":175.4239,"ARG_OF_PERICENTER":357.4945,"MEAN_ANOMALY":2.5801,"EPHEMERIS_TYPE":0,"CLASSIFICATION_TYPE":"U","NORAD_CAT_ID":57292,"ELEMENT_SET_NO":999,"REV_AT_EPOCH":14749,"BSTAR":0.0012115,"MEAN_MOTION_DOT":0.00748056,"MEAN_MOTION_DDOT":0.0002698}]
